H1 CPF 01  gfz 2022 12 18 13  8522 terrasarx 
H2 0702601  6201 31698    2022 12 18 12 59 42 2022 12 23 00 00 42   120 1 1  0 0 0
H9
10 0 59934  85662.000000  0    -369340.866   6871086.917   -352397.922
10 0 59934  85782.000000  0    -186597.656   6774046.754  -1250725.235
10 0 59934  85902.000000  0      -3359.975   6555538.559  -2127063.075
10 0 59934  86022.000000  0     175083.520   6219509.305  -2966034.721
10 0 59934  86142.000000  0     343620.784   5772052.368  -3752950.819
10 0 59934  86262.000000  0     497442.407   5221285.585  -4474067.953
10 0 59934  86382.000000  0     632159.247   4577191.408  -5116826.426
10 0 59935    102.000000  0     743908.891   3851424.212  -5670062.979
10 0 59935    222.000000  0     829448.249   3057089.697  -6124196.051
10 0 59935    342.000000  0     886230.530   2208501.109  -6471380.971
10 0 59935    462.000000  0     912466.009   1320918.699  -6705633.330
10 0 59935    582.000000  0     907164.888    410277.026  -6822922.220
10 0 59935    702.000000  0     870162.408   -507097.036  -6821232.369
10 0 59935    822.000000  0     802125.320  -1414771.347  -6700594.019
10 0 59935    942.000000  0     704539.986  -2296494.581  -6463080.836
10 0 59935   1062.000000  0     579682.894  -3136479.072  -6112779.693
10 0 59935   1182.000000  0     430572.439  -3919680.762  -5655729.468
10 0 59935   1302.000000  0     260903.741  -4632067.716  -5099825.819
10 0 59935   1422.000000  0      74967.640  -5260873.827  -4454696.421
10 0 59935   1542.000000  0    -122446.020  -5794834.622  -3731545.512
10 0 59935   1662.000000  0    -326158.433  -6224399.052  -2942968.034
10 0 59935   1782.000000  0    -530723.159  -6541912.113  -2102736.856
10 0 59935   1902.000000  0    -730556.248  -6741765.003  -1225564.898
10 0 59935   2022.000000  0    -920071.863  -6820506.384   -326845.346
10 0 59935   2142.000000  0   -1093820.150  -6776911.276    577623.528
10 0 59935   2262.000000  0   -1246624.120  -6612006.187   1471923.033
10 0 59935   2382.000000  0   -1373712.024  -6329049.273   2340303.214
10 0 59935   2502.000000  0   -1470841.197  -5933464.695   3167469.566
10 0 59935   2622.000000  0   -1534410.220  -5432733.306   3938860.476
10 0 59935   2742.000000  0   -1561555.787  -4836242.163   4640908.295
10 0 59935   2862.000000  0   -1550233.497  -4155099.659   5261278.967
10 0 59935   2982.000000  0   -1499280.778  -3401919.737   5789089.027
10 0 59935   3102.000000  0   -1408459.365  -2590577.822   6215093.235
10 0 59935   3222.000000  0   -1278476.385  -1735948.268   6531839.496
10 0 59935   3342.000000  0   -1110985.345   -853628.585   6733793.156
10 0 59935   3462.000000  0    -908567.519     40347.718   6817428.390
10 0 59935   3582.000000  0    -674692.982    929802.337   6781285.486
10 0 59935   3702.000000  0    -413660.907   1798704.424   6625995.370
10 0 59935   3822.000000  0    -130520.520   2631459.199   6354269.206
10 0 59935   3942.000000  0     169025.676   3413187.706   5970853.810
10 0 59935   4062.000000  0     478734.333   4129994.527   5482453.928
10 0 59935   4182.000000  0     791948.338   4769218.799   4897620.804
10 0 59935   4302.000000  0    1101736.819   5319664.505   4226608.300
10 0 59935   4422.000000  0    1401043.362   5771803.996   3481197.067
10 0 59935   4542.000000  0    1682842.017   6117953.161   2674493.462
10 0 59935   4662.000000  0    1940298.323   6352413.657   1820695.875
10 0 59935   4782.000000  0    2166926.137   6471573.629    934839.913
10 0 59935   4902.000000  0    2356741.229   6473966.450     32526.081
10 0 59935   5022.000000  0    2504404.973   6360286.255   -870362.476
10 0 59935   5142.000000  0    2605355.851   6133361.028  -1757947.608
10 0 59935   5262.000000  0    2655925.575   5798083.076  -2614642.841
10 0 59935   5382.000000  0    2653436.526   5361299.059  -3425433.464
10 0 59935   5502.000000  0    2596277.982   4831661.247  -4176143.655
10 0 59935   5622.000000  0    2483958.946   4219445.511  -4853683.494
10 0 59935   5742.000000  0    2317137.352   3536342.005  -5446272.246
10 0 59935   5862.000000  0    2097626.081   2795224.292  -5943635.199
10 0 59935   5982.000000  0    1828375.452   2009900.880  -6337172.045
10 0 59935   6102.000000  0    1513433.021   1194855.459  -6620093.423
10 0 59935   6222.000000  0    1157882.935    364981.439  -6787527.222
10 0 59935   6342.000000  0     767763.614   -464686.264  -6836594.415
10 0 59935   6462.000000  0     349965.750  -1279238.490  -6766452.192
10 0 59935   6582.000000  0     -87886.503  -2064152.326  -6578305.348
10 0 59935   6702.000000  0    -537570.386  -2805542.756  -6275389.109
10 0 59935   6822.000000  0    -990415.149  -3490405.233  -5862920.355
10 0 59935   6942.000000  0   -1437464.359  -4106841.990  -5348016.250
10 0 59935   7062.000000  0   -1869648.665  -4644270.737  -4739583.489
10 0 59935   7182.000000  0   -2277966.820  -5093612.685  -4048175.770
10 0 59935   7302.000000  0   -2653671.196  -5447454.237  -3285820.286
10 0 59935   7422.000000  0   -2988453.350  -5700178.872  -2465816.059
10 0 59935   7542.000000  0   -3274626.090  -5848066.741  -1602506.649
10 0 59935   7662.000000  0   -3505297.956  -5889358.795   -711029.614
10 0 59935   7782.000000  0   -3674534.577  -5824281.924    192953.132
10 0 59935   7902.000000  0   -3777502.343  -5655033.942   1093537.297
10 0 59935   8022.000000  0   -3810591.145  -5385728.707   1974864.883
10 0 59935   8142.000000  0   -3771512.221  -5022301.597   2821412.842
10 0 59935   8262.000000  0   -3659368.806  -4572378.827   3618274.187
10 0 59935   8382.000000  0   -3474698.112  -4045114.425   4351426.682
10 0 59935   8502.000000  0   -3219483.459  -3450998.021   5007983.229
10 0 59935   8622.000000  0   -2897136.852  -2801639.174   5576418.103
10 0 59935   8742.000000  0   -2512452.482  -2109534.703   6046766.297
10 0 59935   8862.000000  0   -2071532.918  -1387824.233   6410793.872
10 0 59935   8982.000000  0   -1581688.938   -650036.958   6662138.281
10 0 59935   9102.000000  0   -1051314.192     90165.199   6796411.924
10 0 59935   9222.000000  0    -489741.028    819239.156   6811272.294
10 0 59935   9342.000000  0      92923.382   1524007.673   6706461.211
10 0 59935   9462.000000  0     685978.698   2191897.373   6483809.277
10 0 59935   9582.000000  0    1278327.545   2811162.957   6147205.233
10 0 59935   9702.000000  0    1858682.129   3371094.081   5702532.376
10 0 59935   9822.000000  0    2415778.822   3862203.801   5157572.199
10 0 59935   9942.000000  0    2938598.412   4276394.529   4521874.407
10 0 59935  10062.000000  0    3416586.100   4607096.397   3806593.528
10 0 59935  10182.000000  0    3839866.112   4849376.918   3024298.333
10 0 59935  10302.000000  0    4199451.700   5000021.863   2188752.108
10 0 59935  10422.000000  0    4487437.113   5057577.631   1314664.838
10 0 59935  10542.000000  0    4697170.901   5022360.542    417431.245
10 0 59935  10662.000000  0    4823407.711   4896430.684   -487149.897
10 0 59935  10782.000000  0    4862429.278   4683526.872  -1383163.286
10 0 59935  10902.000000  0    4812136.036   4388968.907  -2254864.391
10 0 59935  11022.000000  0    4672106.292   4019529.640  -3086962.841
10 0 59935  11142.000000  0    4443620.955   3583279.205  -3864895.236
10 0 59935  11262.000000  0    4129652.971   3089406.242  -4575080.999
10 0 59935  11382.000000  0    3734824.262   2548020.744  -5205156.303
10 0 59935  11502.000000  0    3265331.524   1969943.747  -5744183.126
10 0 59935  11622.000000  0    2728841.840   1366488.900  -6182830.075
10 0 59935  11742.000000  0    2134361.439    749240.726  -6513522.432
10 0 59935  11862.000000  0    1492081.647    129834.582  -6730560.638
10 0 59935  11982.000000  0     813205.233   -480258.368  -6830209.609
10 0 59935  12102.000000  0     109752.113  -1069939.610  -6810756.361
10 0 59935  12222.000000  0    -605648.844  -1628679.648  -6672534.341
10 0 59935  12342.000000  0   -1319980.390  -2146700.650  -6417919.073
10 0 59935  12462.000000  0   -2020068.547  -2615144.873  -6051292.274
10 0 59935  12582.000000  0   -2692820.085  -3026224.610  -5578973.898
10 0 59935  12702.000000  0   -3325463.850  -3373352.627  -5009124.972
10 0 59935  12822.000000  0   -3905793.862  -3651251.779  -4351618.405
10 0 59935  12942.000000  0   -4422407.203  -3856039.395  -3617878.023
10 0 59935  13062.000000  0   -4864932.709  -3985285.537  -2820689.124
10 0 59935  13182.000000  0   -5224245.640  -4038043.437  -1973981.185
10 0 59935  13302.000000  0   -5492662.273  -4014850.171  -1092586.130
10 0 59935  13422.000000  0   -5664109.619  -3917697.420   -191976.834
10 0 59935  13542.000000  0   -5734265.720  -3749972.579    712009.448
10 0 59935  13662.000000  0   -5700666.321  -3516371.547   1603458.051
10 0 59935  13782.000000  0   -5562773.005  -3222783.429   2466667.239
10 0 59935  13902.000000  0   -5322001.931  -2876151.116   3286433.122
10 0 59935  14022.000000  0   -4981713.466  -2484312.686   4048324.613
10 0 59935  14142.000000  0   -4547161.889  -2055825.631   4738942.889
10 0 59935  14262.000000  0   -4025407.131  -1599779.835   5346157.454
10 0 59935  14382.000000  0   -3425193.388  -1125605.218   5859316.811
10 0 59935  14502.000000  0   -2756796.055   -642876.561   6269432.809
10 0 59935  14622.000000  0   -2031838.363   -161119.050   6569333.485
10 0 59935  14742.000000  0   -1263083.321    310379.310   6753780.913
10 0 59935  14862.000000  0    -464206.902    762744.721   6819556.607
10 0 59935  14982.000000  0     350445.405   1187683.546   6765514.105
10 0 59935  15102.000000  0    1166115.374   1577633.987   6592597.821
10 0 59935  15222.000000  0    1967898.694   1925900.988   6303827.242
10 0 59935  15342.000000  0    2741016.364   2226771.189   5904247.335
10 0 59935  15462.000000  0    3471088.131   2475607.696   5400846.674
10 0 59935  15582.000000  0    4144403.388   2668922.751   4802440.955
10 0 59935  15702.000000  0    4748182.367   2804427.308   4119524.346
99
